PANDORA
1 67395U 80229J   26133.79765046  .00000000  00000-0  37770-3 0    00
2 67395  97.8053 132.9894 0003838 227.5482  73.6445 14.88018889    06
